GLOBALSTAR M075         
1 37192U 10054E   24170.40216149 -.00000077  00000+0  14742-3 0  9998
2 37192  51.9921 209.1823 0000268 155.3095 310.9084 12.62261126630069
GLOBALSTAR M073         
1 37193U 10054F   24170.57521708 -.00000111  00000+0 -42923-4 0  9990
2 37193  52.0049 122.1968 0000359  15.1808 156.2020 12.62266280631915
GLOBALSTAR M083         
1 37739U 11033A   24170.50880476 -.00000104  00000+0  10533-5 0  9991
2 37739  51.9868  71.6252 0000732  78.1727  93.1570 12.62270493600923
GLOBALSTAR M088         
1 37740U 11033B   24170.62015876 -.00000095  00000+0  48302-4 0  9993
2 37740  51.9755 337.0849 0000921 112.3872 325.1540 12.62264382596483
GLOBALSTAR M091         
1 37741U 11033C   24170.61955373 -.00000097  00000+0  40550-4 0  9997
2 37741  52.0014 299.9939 0001011 129.8508 243.6173 12.62263863597277
GLOBALSTAR M085         
1 37742U 11033D   24170.54661455 -.00000089  00000+0  81798-4 0  9995
2 37742  51.9862 251.5746 0000714 145.6881 317.6727 12.62262629597777
GLOBALSTAR M081         
1 37743U 11033E   24170.57427729 -.00000083  00000+0  11800-3 0  9993
2 37743  51.9953 254.0542 0000692 163.8936 304.2190 12.62266071597927
